<?xml version="1.0" encoding="UTF-8"?>
<kml xmlns="http://www.opengis.net/kml/2.2"><Document><name>Test</name><Placemark><name>Fiji, crosses the antimeridian</name><Polygon><outerBoundaryIs><LinearRing><coordinates>179.9,-16.6 -179.9,-16.6 -179.9,-16.4 179.9,-16.4 179.9,-16.6</coordinates></LinearRing></outerBoundaryIs></Polygon></Placemark><Placemark><name>Svalbard, 78 N</name><Polygon><outerBoundaryIs><LinearRing><coordinates>15.7,78.2 15.7,78.25 15.5,78.25 15.5,78.2 15.7,78.2</coordinates></LinearRing></outerBoundaryIs></Polygon></Placemark><Placemark><name>Plot with a pond (hole)</name><Polygon><outerBoundaryIs><LinearRing><coordinates>73.82,18.5 73.82,18.52 73.8,18.52 73.8,18.5 73.82,18.5</coordinates></LinearRing></outerBoundaryIs><innerBoundaryIs><LinearRing><coordinates>73.81,18.505 73.81,18.51 73.805,18.51 73.805,18.505 73.81,18.505</coordinates></LinearRing></innerBoundaryIs></Polygon></Placemark><Placemark><name>Self-intersecting (bow-tie)</name><Polygon><outerBoundaryIs><LinearRing><coordinates>77.2,28.6 77.21,28.61 77.21,28.6 77.2,28.61 77.2,28.6</coordinates></LinearRing></outerBoundaryIs></Polygon></Placemark><Placemark><name>Mumbai to Pune</name><LineString><coordinates>72.8777,19.076 73.8567,18.5204</coordinates></LineString></Placemark><Placemark><name>Two islands</name><MultiGeometry><Polygon><outerBoundaryIs><LinearRing><coordinates>72.81,18.9 72.81,18.91 72.8,18.91 72.8,18.9 72.81,18.9</coordinates></LinearRing></outerBoundaryIs></Polygon><Polygon><outerBoundaryIs><LinearRing><coordinates>72.84,18.92 72.84,18.93 72.83,18.93 72.83,18.92 72.84,18.92</coordinates></LinearRing></outerBoundaryIs></Polygon></MultiGeometry></Placemark></Document></kml>