<?xml version="1.0" encoding="UTF-8"?>
<kml xmlns="http://www.opengis.net/kml/2.2"><Document><name>Test</name><Folder><name>Plots</name><Placemark><name>Plot S-101</name><ExtendedData><Data name="survey_no"><value>S-101</value></Data><Data name="village"><value>Bavdhan</value></Data></ExtendedData><Polygon><outerBoundaryIs><LinearRing><coordinates>73.7801,18.5352 73.7822,18.5355 73.7826,18.5338 73.7804,18.5334 73.7801,18.5352</coordinates></LinearRing></outerBoundaryIs></Polygon></Placemark><Placemark><name>Plot S-102</name><ExtendedData><Data name="survey_no"><value>S-102</value></Data><Data name="village"><value>Bavdhan</value></Data></ExtendedData><Polygon><outerBoundaryIs><LinearRing><coordinates>73.7822,18.5355 73.7845,18.5357 73.7849,18.5341 73.7826,18.5338 73.7822,18.5355</coordinates></LinearRing></outerBoundaryIs></Polygon></Placemark><Placemark><name>Plot S-103</name><ExtendedData><Data name="survey_no"><value>S-103</value></Data><Data name="village"><value>Bavdhan</value></Data></ExtendedData><Polygon><outerBoundaryIs><LinearRing><coordinates>73.7804,18.5334 73.7826,18.5338 73.7829,18.5321 73.7808,18.5316 73.7801,18.5325 73.7804,18.5334</coordinates></LinearRing></outerBoundaryIs></Polygon></Placemark><Placemark><name>Plot S-104</name><ExtendedData><Data name="survey_no"><value>S-104</value></Data><Data name="village"><value>Bavdhan</value></Data></ExtendedData><Polygon><outerBoundaryIs><LinearRing><coordinates>73.7826,18.5338 73.7849,18.5341 73.7853,18.5322 73.7829,18.5321 73.7826,18.5338</coordinates></LinearRing></outerBoundaryIs></Polygon></Placemark></Folder><Folder><name>Infrastructure</name><Folder><name>Roads</name><Placemark><name>Village road</name><LineString><coordinates>73.7795,18.536 73.7824,18.5357 73.7851,18.536 73.788,18.5364</coordinates></LineString></Placemark><Placemark><name>Farm track</name><LineString><coordinates>73.7826,18.5338 73.7829,18.5321 73.7832,18.53</coordinates></LineString></Placemark></Folder><Placemark><name>Well 1</name><Point><coordinates>73.7815,18.5345</coordinates></Point></Placemark><Placemark><name>Well 2</name><Point><coordinates>73.7838,18.533</coordinates></Point></Placemark></Folder></Document></kml>